satname,norad_id,inclination_deg,eccentricity,mean_motion_rev_per_day,perigee_km,apogee_km,l1,l2
STARLINK-1446,45663,53.0277,0.0005796,15.3986616,442.5491769616283,450.46030166584114,1 45663U 20035G   26003.25723186  .00033291  00000+0  83146-3 0  9991,2 45663  53.0277 309.4695 0005796  72.5491 287.6146 15.39866160309585
STARLINK-1448,45665,53.0577,0.0001115,15.06432585,546.3395261774649,547.883856635649,1 45665U 20035J   26003.40850842  .00005205  00000+0  36774-3 0  9999,2 45665  53.0577 359.6761 0001115  91.5507 268.5610 15.06432585308881
STARLINK-1451,45668,53.0548,0.0001546,15.06635591,545.4190522727613,547.56014681734,1 45668U 20035M   26003.47834433  .00037385  00000+0  24995-2 0  9992,2 45668  53.0548 359.6790 0001546  91.3725 268.7442 15.06635591308902
STARLINK-1452,45669,53.0385,0.0003187,15.34784489,459.3808847941309,463.74050810584777,1 45669U 20035N   26003.66668981  .00130023  00000+0  37466-2 0  9997,2 45669  53.0385 328.9551 0003187 131.9507  59.0571 15.34784489  5920
STARLINK-1453,45670,53.0544,0.0005613,15.39079896,444.99688501427863,452.66083688978233,1 45670U 20035P   26003.66668981  .00160606  00000+0  40099-2 0  9995,2 45670  53.0544 323.2282 0005613  90.3365 352.8609 15.39079896  5823
STARLINK-1454,45671,53.0565,0.0001507,15.063898,546.1991649067859,548.2864743844266,1 45671U 20035Q   26003.36799077 -.00002241  00000+0 -13161-3 0  9997,2 45671  53.0565 359.8615 0001507  94.7459 265.3703 15.06389800308879
STARLINK-1456,45673,53.0545,0.0004041,15.37127393,451.84772947542206,457.3699546649823,1 45673U 20035S   26003.66668981  .00070921  00000+0  19153-2 0  9995,2 45673  53.0545 355.2793 0004041  68.8666 255.7210 15.37127393  5819
STARLINK-1457,45674,53.0517,0.0012382,15.53509745,398.0873565900911,414.8888021366256,1 45674U 20035T   26003.66668981  .00181659  00000+0  27462-2 0  9999,2 45674  53.0517 342.6940 0012382  51.9493 155.2817 15.53509745  5754
STARLINK-1458,45675,53.0565,0.0001398,15.06392748,546.2656175273114,548.2019511986191,1 45675U 20035U   26003.37905148  .00000737  00000+0  68391-4 0  9992,2 45675  53.0565 359.8094 0001398  81.7077 278.4070 15.06392748308859
STARLINK-1460,45676,53.055,0.0001394,15.06400917,546.243354269579,548.1741406639721,1 45676U 20035V   26003.41590390  .00003123  00000+0  22843-3 0  9990,2 45676  53.0550 359.6436 0001394  96.0300 264.0847 15.06400917308857
STARLINK-1392,45677,53.0549,0.0001511,15.0641695,546.1131967989941,548.2060214342691,1 45677U 20035W   26003.42695528  .00007633  00000+0  53051-3 0  9996,2 45677  53.0549 359.5963 0001511  98.9476 261.1684 15.06416950308891
STARLINK-1394,45679,53.0545,0.0002987,15.37881299,450.3353357532542,454.41588398639124,1 45679U 20035Y   26003.66668981  .00116093  00000+0  30353-2 0  9997,2 45679  53.0545 345.3326 0002987  79.2238 350.6581 15.37881299  5802
STARLINK-1402,45685,53.0534,0.0008794,15.34581699,456.14788573838086,468.17860581064906,1 45685U 20035AE  26003.66668981  .00126903  00000+0  36789-2 0  9994,2 45685  53.0534 330.5387 0008794  46.8682 269.4876 15.34581699  5818
STARLINK-1404,45686,53.0546,0.0001301,15.06428924,546.2219351480126,548.0238877769752,1 45686U 20035AF  26003.25096902  .00028796  00000+0  19427-2 0  9999,2 45686  53.0546 350.3874 0001301  90.0750 270.0388 15.06428924309012
STARLINK-1413,45689,53.0561,0.0001443,15.06407628,546.1888548921879,548.1875037389391,1 45689U 20035AJ  26003.33573001  .00001469  00000+0  11745-3 0  9995,2 45689  53.0561 350.0046 0001443  96.8084 263.3069 15.06407628308930
STARLINK-1417,45693,53.0531,0.0005703,15.08916517,535.564383181053,543.4546507983305,1 45693U 20035AN  26003.36294215  .00054009  00000+0  33775-2 0  9994,2 45693  53.0531 349.5091 0005703  46.9498 313.1969 15.08916517309021
STARLINK-1420,45695,53.0591,0.0001756,15.06389409,546.0279211113093,548.4601149248374,1 45695U 20035AQ  26003.59834067 -.00000746  00000+0 -31198-4 0  9996,2 45695  53.0591 328.8200 0001756 100.0545 260.0643 15.06389409309346
STARLINK-1422,45696,53.0551,0.0001495,15.06407818,546.1522609706535,548.2229330251557,1 45696U 20035AR  26003.27675943 -.00000114  00000+0  11229-4 0  9999,2 45696  53.0551 350.2684 0001495 102.4934 257.6222 15.06407818309009
STARLINK-1351,45697,53.056,0.0001804,15.10306444,534.0175058406903,536.5118611680991,1 45697U 20035AS  26003.62261670  .00040771  00000+0  24638-2 0  9995,2 45697  53.0560 328.4229 0001804 103.2379 256.8813 15.10306444309351
STARLINK-1398,45699,53.045,0.0007139,15.65721605,366.34590492678035,375.98255722450995,1 45699U 20035AU  26003.66668981  .00223782  00000+0  21178-2 0  9998,2 45699  53.0450 264.8360 0007139 102.6410 167.2201 15.65721605  5962
STARLINK-1400,45700,53.056,0.0001538,15.06399603,546.1476558910199,548.2778934817134,1 45700U 20035AV  26003.62508805  .00000983  00000+0  84911-4 0  9997,2 45700  53.0560 328.7055 0001538  60.1602 299.9540 15.06399603309348
STARLINK-1403,45701,53.0554,0.0001703,15.06421101,545.9675113212943,548.3262630132631,1 45701U 20035AW  26003.58821267  .00008839  00000+0  61117-3 0  9993,2 45701  53.0554 328.8645 0001703  60.3741 299.7418 15.06421101309338
STARLINK-1407,45703,53.0397,0.0004835,15.47857653,419.70599826727175,426.28269227815144,1 45703U 20035AY  26003.15693062  .00107304  00000+0  20096-2 0  9995,2 45703  53.0397 272.1357 0004835 240.5416 119.5108 15.47857653310108
STARLINK-1411,45706,53.0494,0.0002497,15.51337666,411.1238187527897,414.515222439175,1 45706U 20035BB  26003.63929021  .00080280  00000+0  13370-2 0  9998,2 45706  53.0494 296.5583 0002497 125.4538 234.6704 15.51337666309794
STARLINK-1423,45710,53.0569,0.0001148,15.06392674,546.438978572055,548.0290437562171,1 45710U 20035BF  26003.61402909  .00001209  00000+0  10008-3 0  9992,2 45710  53.0569 328.7537 0001148  97.0637 263.0483 15.06392674309346
STARLINK-1433,45711,53.0568,0.00013,15.06410111,546.2802780688426,548.0808606368746,1 45711U 20035BG  26003.59561150  .00007775  00000+0  54013-3 0  9992,2 45711  53.0568 328.8399 0001300  88.1733 271.9405 15.06410111309339
STARLINK-1434,45712,53.0498,0.0002948,15.20089103,503.5422819316409,507.6009165217456,1 45712U 20035BH  26003.60930919  .00068194  00000+0  31041-2 0  9995,2 45712  53.0498 319.8548 0002948  33.1532 326.9647 15.20089103309477
STARLINK-1465,45731,53.0539,0.0001356,15.06393224,546.2932453996664,548.1714055607354,1 45731U 20038B   26003.62876745  .00000008  00000+0  19435-4 0  9992,2 45731  53.0539 168.6844 0001356  96.7179 263.3964 15.06393224306386
STARLINK-1471,45735,53.0513,0.0001851,15.44203497,432.45856985043883,434.98031910618465,1 45735U 20038F   26003.50212292  .00037605  00000+0  81165-3 0  9995,2 45735  53.0513  93.1740 0001851  60.2944 299.8245 15.44203497307443
STARLINK-1474,45738,53.0319,0.0004793,15.82007973,321.5501324146835,327.9755321939301,1 45738U 20038J   26003.66668981  .00187876  00000+0  88645-3 0  9991,2 45738  53.0319  35.0839 0004793  59.9029 280.8528 15.82007973  5881
STARLINK-1480,45741,53.054,0.00012,15.36713465,455.0156858330447,456.65583929605964,1 45741U 20038M   26003.62012378  .00048612  00000+0  13379-2 0  9999,2 45741  53.0540 166.0227 0001200  28.5794 331.5274 15.36713465306434
STARLINK-1500,45744,53.0379,0.0002577,15.31114117,470.7216330363226,474.2524446659454,1 45744U 20038Q   26003.60903775  .00032154  00000+0  10625-2 0  9995,2 45744  53.0379 137.1535 0002577  58.0533 302.0717 15.31114117306838
STARLINK-1504,45746,53.0255,0.0002192,15.48043176,420.96026435972817,423.9416421184287,1 45746U 20038S   26003.53281545  .00058534  00000+0  11001-2 0  9992,2 45746  53.0255  95.4158 0002192  14.6318 345.4751 15.48043176307409
STARLINK-1506,45747,53.0765,0.0003543,15.23830183,491.86551161371517,496.7353207668275,1 45747U 20038T   26003.64983830  .00013782  00000+0  57720-3 0  9996,2 45747  53.0765 142.6846 0003543  72.8844 287.2541 15.23830183306769
STARLINK-1464,45751,53.054,0.000109,15.06403845,546.4449118838029,547.9546353004462,1 45751U 20038X   26003.61219374  .00003304  00000+0  24057-3 0  9999,2 45751  53.0540 148.7623 0001090  95.8515 264.2599 15.06403845306670
STARLINK-1477,45754,53.0516,0.0004479,15.10371306,531.9703301694044,538.1631780923544,1 45754U 20038AA  26003.67106128  .00050769  00000+0  30535-2 0  9994,2 45754  53.0516 147.5607 0004479 158.5755 201.5424 15.10371306306696
STARLINK-1478,45755,53.0564,0.0001418,15.19439133,506.558165643095,508.5109420957724,1 45755U 20038AB  26003.66668981  .01889472  00000+0  79780-1 0  9990,2 45755  53.0564 148.0798 0001418  67.1735 273.9551 15.19439133  5816
STARLINK-1484,45756,53.0104,0.0004236,15.74764916,342.45217544944353,348.14827146515563,1 45756U 20038AC  26003.66668981  .00081806  00000+0  54346-3 0  9998,2 45756  53.0104  25.8272 0004236  50.0327  15.8953 15.74764916  6030
STARLINK-1493,45759,53.0564,0.0001346,15.06392096,546.3036274892665,548.1679378423605,1 45759U 20038AF  26003.63429832  .00001296  00000+0  10590-3 0  9996,2 45759  53.0564 148.6616 0001346  97.0193 263.0949 15.06392096306665
STARLINK-1494,45760,53.0525,0.0001923,15.57467102,393.6880643255963,396.29300917623004,1 45760U 20038AG  26003.57723932  .00059160  00000+0  79172-3 0  9993,2 45760  53.0525 112.2050 0001923 222.8977 137.1885 15.57467102307187
STARLINK-1502,45764,53.0537,0.000126,15.06394675,546.3552823697419,548.1004743190842,1 45764U 20038AL  26003.66747171  .00001319  00000+0  10743-3 0  9990,2 45764  53.0537 148.5144 0001260  86.7857 273.3276 15.06394675306687
STARLINK-1470,45772,53.0471,0.0003116,15.22767442,495.3551175187349,499.6400129797985,1 45772U 20038AU  26003.60339788  .00058728  00000+0  24766-2 0  9999,2 45772  53.0471 115.1133 0003116 132.3680 227.7580 15.22767442307142
STARLINK-1482,45773,53.0561,0.0001413,15.06401277,546.2290929217497,548.1861953181779,1 45773U 20038AV  26003.63245030  .00002869  00000+0  21143-3 0  9991,2 45773  53.0561 128.6706 0001413  85.4950 274.6200 15.06401277306955
